{"type": "FeatureCollection", "features": [ {"type": "Feature", "properties": {"norad_id": 34910, "name": "COSMOS 2251 DEB", "group": "cosmos-2251-debris", "lat": 69.5097012096508, "lon": -134.8215516198855, "alt_km": 1224.5816317798308, "timestamp": "2025-12-16T05:49:09.608740+00:00", "meta": {"OBJECT_NAME": "COSMOS 2251 DEB", "OBJECT_ID": "1993-036ADF", "EPOCH": "2025-12-14T02:07:32.801376", "MEAN_MOTION": 13.37686817, "ECCENTRICITY": 0.0468001, "INCLINATION": 73.8761, "RA_OF_ASC_NODE": 99.2955, "ARG_OF_PERICENTER": 217.9911, "MEAN_ANOMALY": 321.1168, "EPHEMERIS_TYPE": 0, "CLASSIFICATION_TYPE": "U", "NORAD_CAT_ID": 34910, "ELEMENT_SET_NO": 999, "REV_AT_EPOCH": 81542, "BSTAR": 0.0016260876, "MEAN_MOTION_DOT": 1.586e-05, "MEAN_MOTION_DDOT": 0}, "tle": {"line1": "1 34910U 93036ADF 25348.08857409  .00001586  00000+0  16261-2 0  9998", "line2": "2 34910  73.8761  99.2955 0468001 217.9911 321.1168 13.37686817815421"}}, "geometry": {"type": "Point", "coordinates": [-134.8215516198855, 69.5097012096508]}}, {"type": "Feature", "properties": {"norad_id": 34911, "name": "COSMOS 2251 DEB", "group": "cosmos-2251-debris", "lat": -20.11823222406913, "lon": -127.94805892427831, "alt_km": 645.5899448798655, "timestamp": "2025-12-16T05:49:09.608750+00:00", "meta": {"OBJECT_NAME": "COSMOS 2251 DEB", "OBJECT_ID": "1993-036ADG", "EPOCH": "2025-12-15T16:53:36.952224", "MEAN_MOTION": 14.59377115, "ECCENTRICITY": 0.00837564, "INCLINATION": 74.0407, "RA_OF_ASC_NODE": 239.0951, "ARG_OF_PERICENTER": 3.7582, "MEAN_ANOMALY": 27.4051, "EPHEMERIS_TYPE": 0, "CLASSIFICATION_TYPE": "U", "NORAD_CAT_ID": 34911, "ELEMENT_SET_NO": 999, "REV_AT_EPOCH": 88630, "BSTAR": 0.00015213473, "MEAN_MOTION_DOT": 7.24e-06, "MEAN_MOTION_DDOT": 0}, "tle": {"line1": "1 34911U 93036ADG 25349.70389991  .00000724  00000+0  15213-3 0  9995", "line2": "2 34911  74.0407 239.0951 0083756   3.7582  27.4051 14.59377115886302"}}, "geometry": {"type": "Point", "coordinates": [-127.94805892427831, -20.11823222406913]}}, {"type": "Feature", "properties": {"norad_id": 34913, "name": "COSMOS 2251 DEB", "group": "cosmos-2251-debris", "lat": 29.509148261721144, "lon": -74.59117445778803, "alt_km": 759.937921489889, "timestamp": "2025-12-16T05:49:09.608760+00:00", "meta": {"OBJECT_NAME": "COSMOS 2251 DEB", "OBJECT_ID": "1993-036ADJ", "EPOCH": "2025-12-13T12:56:38.472288", "MEAN_MOTION": 14.34637945, "ECCENTRICITY": 0.00203757, "INCLINATION": 74.0284, "RA_OF_ASC_NODE": 281.0321, "ARG_OF_PERICENTER": 30.7723, "MEAN_ANOMALY": 84.8293, "EPHEMERIS_TYPE": 0, "CLASSIFICATION_TYPE": "U", "NORAD_CAT_ID": 34913, "ELEMENT_SET_NO": 999, "REV_AT_EPOCH": 65199, "BSTAR": 8.4132523e-05, "MEAN_MOTION_DOT": 2.12e-06, "MEAN_MOTION_DDOT": 0}, "tle": {"line1": "1 34913U 93036ADJ 25347.53933417  .00000212  00000+0  84133-4 0  9994", "line2": "2 34913  74.0284 281.0321 0020375  30.7723  84.8293 14.34637945651993"}}, "geometry": {"type": "Point", "coordinates": [-74.59117445778803, 29.509148261721144]}}, {"type": "Feature", "properties": {"norad_id": 34918, "name": "COSMOS 2251 DEB", "group": "cosmos-2251-debris", "lat": 26.69746837261307, "lon": 118.68616308881985, "alt_km": 700.2369475801324, "timestamp": "2025-12-16T05:49:09.608770+00:00", "meta": {"OBJECT_NAME": "COSMOS 2251 DEB", "OBJECT_ID": "1993-036ADP", "EPOCH": "2025-12-15T06:25:32.155392", "MEAN_MOTION": 14.61253226, "ECCENTRICITY": 0.00334933, "INCLINATION": 74.0705, "RA_OF_ASC_NODE": 308.803, "ARG_OF_PERICENTER": 276.1787, "MEAN_ANOMALY": 150.6606, "EPHEMERIS_TYPE": 0, "CLASSIFICATION_TYPE": "U", "NORAD_CAT_ID": 34918, "ELEMENT_SET_NO": 999, "REV_AT_EPOCH": 65373, "BSTAR": 0.0013394114, "MEAN_MOTION_DOT": 6.635e-05, "MEAN_MOTION_DDOT": 0}, "tle": {"line1": "1 34918U 93036ADP 25349.26773328  .00006635  00000+0  13394-2 0  9998", "line2": "2 34918  74.0705 308.8030 0033493 276.1787 150.6606 14.61253226653732"}}, "geometry": {"type": "Point", "coordinates": [118.68616308881985, 26.69746837261307]}}, {"type": "Feature", "properties": {"norad_id": 34924, "name": "COSMOS 2251 DEB", "group": "cosmos-2251-debris", "lat": 44.42959782554206, "lon": -113.52582562148142, "alt_km": 656.8136305934177, "timestamp": "2025-12-16T05:49:09.608780+00:00", "meta": {"OBJECT_NAME": "COSMOS 2251 DEB", "OBJECT_ID": "1993-036ADV", "EPOCH": "2025-12-15T23:11:46.077792", "MEAN_MOTION": 14.60064145, "ECCENTRICITY": 0.00541137, "INCLINATION": 74.0411, "RA_OF_ASC_NODE": 83.2915, "ARG_OF_PERICENTER": 167.1484, "MEAN_ANOMALY": 316.438, "EPHEMERIS_TYPE": 0, "CLASSIFICATION_TYPE": "U", "NORAD_CAT_ID": 34924, "ELEMENT_SET_NO": 999, "REV_AT_EPOCH": 87770, "BSTAR": 0.00064984297, "MEAN_MOTION_DOT": 3.158e-05, "MEAN_MOTION_DDOT": 0}, "tle": {"line1": "1 34924U 93036ADV 25349.96650553  .00003158  00000+0  64984-3 0  9995", "line2": "2 34924  74.0411  83.2915 0054113 167.1484 316.4380 14.60064145877709"}}, "geometry": {"type": "Point", "coordinates": [-113.52582562148142, 44.42959782554206]}}, {"type": "Feature", "properties": {"norad_id": 34944, "name": "COSMOS 2251 DEB", "group": "cosmos-2251-debris", "lat": 18.580480348234126, "lon": -128.6488539950468, "alt_km": 748.0892398623664, "timestamp": "2025-12-16T05:49:09.608790+00:00", "meta": {"OBJECT_NAME": "COSMOS 2251 DEB", "OBJECT_ID": "1993-036ADX", "EPOCH": "2025-12-07T09:30:46.029312", "MEAN_MOTION": 14.14167925, "ECCENTRICITY": 0.02195348, "INCLINATION": 73.7495, "RA_OF_ASC_NODE": 241.6775, "ARG_OF_PERICENTER": 90.2413, "MEAN_ANOMALY": 272.3884, "EPHEMERIS_TYPE": 0, "CLASSIFICATION_TYPE": "U", "NORAD_CAT_ID": 34944, "ELEMENT_SET_NO": 999, "REV_AT_EPOCH": 64007, "BSTAR": 0.00099492053, "MEAN_MOTION_DOT": 2.364e-05, "MEAN_MOTION_DDOT": 0}, "tle": {"line1": "1 34944U 93036ADX 25341.39636608  .00002364  00000+0  99492-3 0  9991", "line2": "2 34944  73.7495 241.6775 0219534  90.2413 272.3884 14.14167925640077"}}, "geometry": {"type": "Point", "coordinates": [-128.6488539950468, 18.580480348234126]}}, {"type": "Feature", "properties": {"norad_id": 34946, "name": "COSMOS 2251 DEB", "group": "cosmos-2251-debris", "lat": 2.120361610530492, "lon": -23.985275747524323, "alt_km": 700.3115033821514, "timestamp": "2025-12-16T05:49:09.608800+00:00", "meta": {"OBJECT_NAME": "COSMOS 2251 DEB", "OBJECT_ID": "1993-036ADZ", "EPOCH": "2025-12-11T09:12:32.820480", "MEAN_MOTION": 14.61985522, "ECCENTRICITY": 0.0048688, "INCLINATION": 74.0237, "RA_OF_ASC_NODE": 344.7115, "ARG_OF_PERICENTER": 122.3418, "MEAN_ANOMALY": 238.2476, "EPHEMERIS_TYPE": 0, "CLASSIFICATION_TYPE": "U", "NORAD_CAT_ID": 34946, "ELEMENT_SET_NO": 999, "REV_AT_EPOCH": 88189, "BSTAR": 0.00095647955, "MEAN_MOTION_DOT": 4.849e-05, "MEAN_MOTION_DDOT": 0}, "tle": {"line1": "1 34946U 93036ADZ 25345.38371320  .00004849  00000+0  95648-3 0  9992", "line2": "2 34946  74.0237 344.7115 0048688 122.3418 238.2476 14.61985522881890"}}, "geometry": {"type": "Point", "coordinates": [-23.985275747524323, 2.120361610530492]}}, {"type": "Feature", "properties": {"norad_id": 34949, "name": "COSMOS 2251 DEB", "group": "cosmos-2251-debris", "lat": 49.195776151360874, "lon": 122.20338071247193, "alt_km": 697.845130726344, "timestamp": "2025-12-16T05:49:09.608810+00:00", "meta": {"OBJECT_NAME": "COSMOS 2251 DEB", "OBJECT_ID": "1993-036AEC", "EPOCH": "2025-12-15T00:15:42.913440", "MEAN_MOTION": 14.74016765, "ECCENTRICITY": 0.00803095, "INCLINATION": 74.0181, "RA_OF_ASC_NODE": 105.2196, "ARG_OF_PERICENTER": 250.0673, "MEAN_ANOMALY": 109.1837, "EPHEMERIS_TYPE": 0, "CLASSIFICATION_TYPE": "U", "NORAD_CAT_ID": 34949, "ELEMENT_SET_NO": 999, "REV_AT_EPOCH": 88395, "BSTAR": 0.00039146284, "MEAN_MOTION_DOT": 2.675e-05, "MEAN_MOTION_DDOT": 0}, "tle": {"line1": "1 34949U 93036AEC 25349.01091335  .00002675  00000+0  39146-3 0  9990", "line2": "2 34949  74.0181 105.2196 0080309 250.0673 109.1837 14.74016765883952"}}, "geometry": {"type": "Point", "coordinates": [122.20338071247193, 49.195776151360874]}}, {"type": "Feature", "properties": {"norad_id": 34953, "name": "COSMOS 2251 DEB", "group": "cosmos-2251-debris", "lat": -35.39409018890674, "lon": 9.042646487670403, "alt_km": 643.0422778153206, "timestamp": "2025-12-16T05:49:09.608825+00:00", "meta": {"OBJECT_NAME": "COSMOS 2251 DEB", "OBJECT_ID": "1993-036AEG", "EPOCH": "2025-12-15T20:58:44.435424", "MEAN_MOTION": 14.68987416, "ECCENTRICITY": 0.00581924, "INCLINATION": 74.0933, "RA_OF_ASC_NODE": 21.443, "ARG_OF_PERICENTER": 12.5608, "MEAN_ANOMALY": 163.8642, "EPHEMERIS_TYPE": 0, "CLASSIFICATION_TYPE": "U", "NORAD_CAT_ID": 34953, "ELEMENT_SET_NO": 999, "REV_AT_EPOCH": 88174, "BSTAR": 0.0005270651, "MEAN_MOTION_DOT": 3.138e-05, "MEAN_MOTION_DDOT": 0}, "tle": {"line1": "1 34953U 93036AEG 25349.87412541  .00003138  00000+0  52707-3 0  9998", "line2": "2 34953  74.0933  21.4430 0058192  12.5608 163.8642 14.68987416881745"}}, "geometry": {"type": "Point", "coordinates": [9.042646487670403, -35.39409018890674]}}, {"type": "Feature", "properties": {"norad_id": 34955, "name": "COSMOS 2251 DEB", "group": "cosmos-2251-debris", "lat": 42.242484560787005, "lon": 44.317799450914826, "alt_km": 614.5608290530172, "timestamp": "2025-12-16T05:49:09.608835+00:00", "meta": {"OBJECT_NAME": "COSMOS 2251 DEB", "OBJECT_ID": "1993-036AEJ", "EPOCH": "2025-12-11T10:00:38.398176", "MEAN_MOTION": 15.00495775, "ECCENTRICITY": 0.00779991, "INCLINATION": 74.0375, "RA_OF_ASC_NODE": 249.1952, "ARG_OF_PERICENTER": 319.1032, "MEAN_ANOMALY": 40.4318, "EPHEMERIS_TYPE": 0, "CLASSIFICATION_TYPE": "U", "NORAD_CAT_ID": 34955, "ELEMENT_SET_NO": 999, "REV_AT_EPOCH": 90014, "BSTAR": 0.0014966224, "MEAN_MOTION_DOT": 0.00020131, "MEAN_MOTION_DDOT": 0}, "tle": {"line1": "1 34955U 93036AEJ 25345.41711109  .00020131  00000+0  14966-2 0  9994", "line2": "2 34955  74.0375 249.1952 0077999 319.1032  40.4318 15.00495775900143"}}, "geometry": {"type": "Point", "coordinates": [44.317799450914826, 42.242484560787005]}}]}